SL-8 R/B                
1 19257U 88053B   26079.44151142  .00000266  00000+0  94787-4 0  9996
2 19257  74.0450  92.6458 0021549 270.5389 195.5849 14.38922647978141
COSMOS 1975             
1 19573U 88093A   26079.52917003  .00005722  00000+0  20652-3 0  9997
2 19573  82.5160 106.8006 0013041 127.8919 232.3502 15.28205545 21069
SL-14 R/B               
1 19574U 88093B   26079.38146245  .00000491  00000+0  53647-4 0  9993
2 19574  82.5327  32.0076 0020878   7.2816 108.8688 14.85668857  2607
SL-16 R/B               
1 19650U 88102B   26079.42950932 -.00000126  00000+0 -39675-4 0  9992
2 19650  70.9988 128.9005 0014722 344.9058  15.1624 14.16155874928413
INTERCOSMOS 24          
1 20261U 89080A   26079.28738038  .00000476  00000+0  14137-3 0  9994
2 20261  82.6016  97.5012 1186692 268.1968  78.3158 12.59572157668133
SL-14 R/B               
1 20262U 89080C   26079.51848822  .00000411  00000+0  11661-3 0  9992
2 20262  82.5967 166.2374 1230821 160.0075 205.3979 12.50505070661504
DELTA 1 R/B             
1 20323U 89089B   26079.31206596  .00000310  00000+0  84956-4 0  9999
2 20323  97.0697 285.0606 0070718  89.0718 271.8582 14.50671687897274
ARIANE 40 R/B           
1 20443U 90005H   26079.58462713  .00000215  00000+0  81791-4 0  9994
2 20443  98.3060 139.9203 0010538 165.6883 194.4606 14.39877116894370
DELTA 2 R/B(1)          
1 20453U 90008B   26079.14924541  .00054938  00000+0  62061-3 0  9991
2 20453  35.6026 106.1373 0081508 355.6437   4.3584 15.57257585927769
COSMOS 2058             
1 20465U 90010A   26079.37366659  .00003440  00000+0  20194-3 0  9995
2 20465  82.4676  36.8994 0007944 306.0786  53.9708 15.11408789943850
SL-14 R/B               
1 20466U 90010B   26079.47832073  .00000392  00000+0  44652-4 0  9994
2 20466  82.4987 257.2514 0018327 263.9518  95.9609 14.83578063930082
SL-14 R/B               
1 20511U 90018B   26079.64154009  .00000447  00000+0  53067-4 0  9999
2 20511  82.5224 212.8541 0017427  58.8080 301.4839 14.82155847924207
HST                     
1 20580U 90037B   26079.38214405  .00005871  00000+0  19090-3 0  9997
2 20580  28.4724 327.0513 0001527 242.0595 117.9847 15.29639663774956
SL-16 R/B               
1 20625U 90046B   26079.23028156  .00000073  00000+0  62199-4 0  9995
2 20625  70.9954 275.7753 0016211 285.6681  74.2653 14.15012018849881
COSMOS 2084             
1 20663U 90055A   26079.61370360  .00001925  00000+0  14610-3 0  9997
2 20663  62.7889 298.3185 0015424 193.0258 167.0447 15.05707002937969
SL-6 R/B(2)             
1 20666U 90055D   26079.41180285  .00001767  00000+0  14218-3 0  9991
2 20666  62.7816 217.3860 0026481 349.5511  10.5034 15.03644129939805
SL-8 R/B                
1 20775U 90078B   26079.46002256  .00010813  00000+0  31943-3 0  9999
2 20775  82.9008 241.6196 0360036 337.7231  20.8670 14.89380797810900
